IRIDIUM 155             
1 43573U 18061E   24028.19067562  .00000000  00000+0 -70283-5 0  9995
2 43573  86.3925  60.6917 0002002  86.3656 273.7769 14.34217563288526
IRIDIUM 154             
1 43574U 18061F   24027.61350082  .00000128  00000+0  38798-4 0  9998
2 43574  86.3931  61.0243 0002311  87.1776 272.9684 14.34218158288489
IRIDIUM 163             
1 43575U 18061G   24028.15261242  .00000396  00000+0  13423-3 0  9992
2 43575  86.3932  60.7415 0002410  95.4026 264.7445 14.34215463288534
IRIDIUM 156             
1 43576U 18061H   24028.12724954  .00000238  00000+0  77850-4 0  9994
2 43576  86.3929  60.7581 0001950  95.4942 264.6476 14.34217722288511
IRIDIUM 164             
1 43577U 18061J   24027.61984188  .00000134  00000+0  40951-4 0  9992
2 43577  86.3929  60.9972 0002179  99.4197 260.7245 14.34217280288495
IRIDIUM 159             
1 43578U 18061K   24027.58812914  .00000319  00000+0  10692-3 0  9999
2 43578  86.3928  60.9656 0002328  92.1624 267.9838 14.34219078288455
IRIDIUM 180             
1 43922U 19002A   24027.93645868  .00000315  00000+0  10547-3 0  9994
2 43922  86.3994 357.7028 0002258  91.0746 269.0708 14.34216939264115
IRIDIUM 176             
1 43923U 19002B   24027.88100706  .00001710  00000+0  26732-3 0  9999
2 43923  86.6123 357.7549 0002257  91.6077 268.5399 14.72245210271050
IRIDIUM 168             
1 43924U 19002C   24027.93012516  .00000164  00000+0  51502-4 0  9993
2 43924  86.3997 357.7574 0002248  90.6130 269.5324 14.34217234264092
IRIDIUM 173             
1 43925U 19002D   24027.84766296  .00000545  00000+0  18745-3 0  9999
2 43925  86.3993 357.7167 0002264  85.9973 274.1482 14.34222904264061
IRIDIUM 169             
1 43926U 19002E   24028.06620359  .00000250  00000+0  75312-4 0  9991
2 43926  86.4214  29.2262 0002620  24.6183 335.5139 14.38599514264985
IRIDIUM 172             
1 43927U 19002F   24027.91109920  .00000363  00000+0  12266-3 0  9994
2 43927  86.3994 357.6956 0002258  90.2513 269.8942 14.34218747264085
IRIDIUM 175             
1 43928U 19002G   24027.87508660  .00001774  00000+0  27743-3 0  9997
2 43928  86.1544 338.8987 0002383  82.8079 277.3408 14.72240660271049
IRIDIUM 171             
1 43929U 19002H   24027.89206472  .00000464  00000+0  15869-3 0  9997
2 43929  86.4002 357.9133 0002140  91.5740 268.5701 14.34221548264075
IRIDIUM 170             
1 43930U 19002J   24027.88723743  .00001734  00000+0  27113-3 0  9999
2 43930  86.6123 357.7571 0002438  91.1006 269.0491 14.72248448271067
IRIDIUM 167             
1 43931U 19002K   24027.88572564  .00000236  00000+0  77226-4 0  9990
2 43931  86.3994 357.7211 0002180  91.2148 268.9297 14.34216279264074
IRIDIUM 181             
1 56726U 23068S   24028.11721416  .00000265  00000+0  72337-4 0  9992
2 56726  86.8602  44.4947 0001867 104.3945 255.7463 14.43569559 36785
IRIDIUM 177             
1 56727U 23068T   24027.93787784  .00002266  00000+0  29474-3 0  9998
2 56727  86.1972  22.4032 0002606  94.4272 265.7247 14.80231693 37489
IRIDIUM 174             
1 56728U 23068U   24027.93250310  .00002632  00000+0  34293-3 0  9991
2 56728  86.1976  22.4975 0002536  93.5047 266.6464 14.80225505 37488
IRIDIUM 178             
1 56729U 23068V   24027.92711413  .00000882  00000+0  11275-3 0  9997
2 56729  86.5765  33.2654 0002546  95.7612 264.3899 14.80207307 37483
IRIDIUM 179             
1 56730U 23068W   24027.51606970  .00001022  00000+0  13112-3 0  9994
2 56730  86.6772  35.7901 0002219  93.5671 266.5804 14.80200554 37425
